CCSDS_OMM_VERS = 2.0
CREATION_DATE  = 
ORIGINATOR     = 

OBJECT_NAME    = ALOS (DAICHI)
OBJECT_ID      = 2006-002A
CENTER_NAME    = EARTH
REF_FRAME      = TEME
TIME_SYSTEM    = UTC
MEAN_ELEMENT_THEORY = SGP/SGP4

EPOCH          = 2026-02-09T02:44:02.689728
MEAN_MOTION    = 14.69713598
ECCENTRICITY   = .00019764
INCLINATION    = 98.1170
RA_OF_ASC_NODE = 356.2243
ARG_OF_PERICENTER = 64.9072
MEAN_ANOMALY   = 295.2339

EPHEMERIS_TYPE = 0
CLASSIFICATION_TYPE = U
NORAD_CAT_ID   = 28931
ELEMENT_SET_NO = 999
REV_AT_EPOCH   = 6928
BSTAR          = .29037137E-3
MEAN_MOTION_DOT = .1681E-4
MEAN_MOTION_DDOT = 0

CCSDS_OMM_VERS = 2.0
CREATION_DATE  = 
ORIGINATOR     = 

OBJECT_NAME    = H-2A R/B
OBJECT_ID      = 2006-002B
CENTER_NAME    = EARTH
REF_FRAME      = TEME
TIME_SYSTEM    = UTC
MEAN_ELEMENT_THEORY = SGP/SGP4

EPOCH          = 2026-02-09T07:05:21.234624
MEAN_MOTION    = 15.15845903
ECCENTRICITY   = .00527462
INCLINATION    = 98.2359
RA_OF_ASC_NODE = 184.9013
ARG_OF_PERICENTER = 338.9903
MEAN_ANOMALY   = 20.9160

EPHEMERIS_TYPE = 0
CLASSIFICATION_TYPE = U
NORAD_CAT_ID   = 28932
ELEMENT_SET_NO = 999
REV_AT_EPOCH   = 9013
BSTAR          = .46947432E-3
MEAN_MOTION_DOT = .9223E-4
MEAN_MOTION_DDOT = 0

CCSDS_OMM_VERS = 2.0
CREATION_DATE  = 
ORIGINATOR     = 

OBJECT_NAME    = RESURS-DK 1
OBJECT_ID      = 2006-021A
CENTER_NAME    = EARTH
REF_FRAME      = TEME
TIME_SYSTEM    = UTC
MEAN_ELEMENT_THEORY = SGP/SGP4

EPOCH          = 2026-02-09T03:59:52.860192
MEAN_MOTION    = 15.12577967
ECCENTRICITY   = .00045736
INCLINATION    = 69.9346
RA_OF_ASC_NODE = 310.7957
ARG_OF_PERICENTER = 204.7790
MEAN_ANOMALY   = 155.3157

EPHEMERIS_TYPE = 0
CLASSIFICATION_TYPE = U
NORAD_CAT_ID   = 29228
ELEMENT_SET_NO = 999
REV_AT_EPOCH   = 8321
BSTAR          = .19243693E-3
MEAN_MOTION_DOT = .3259E-4
MEAN_MOTION_DDOT = 0

CCSDS_OMM_VERS = 2.0
CREATION_DATE  = 
ORIGINATOR     = 

OBJECT_NAME    = CZ-4B R/B
OBJECT_ID      = 2006-046C
CENTER_NAME    = EARTH
REF_FRAME      = TEME
TIME_SYSTEM    = UTC
MEAN_ELEMENT_THEORY = SGP/SGP4

EPOCH          = 2026-02-09T02:37:06.910464
MEAN_MOTION    = 15.16593541
ECCENTRICITY   = .00336285
INCLINATION    = 97.5654
RA_OF_ASC_NODE = 85.0925
ARG_OF_PERICENTER = 9.5359
MEAN_ANOMALY   = 350.6505

EPHEMERIS_TYPE = 0
CLASSIFICATION_TYPE = U
NORAD_CAT_ID   = 29507
ELEMENT_SET_NO = 999
REV_AT_EPOCH   = 5571
BSTAR          = .24291407E-3
MEAN_MOTION_DOT = .4742E-4
MEAN_MOTION_DDOT = 0

CCSDS_OMM_VERS = 2.0
CREATION_DATE  = 
ORIGINATOR     = 

OBJECT_NAME    = CZ-2C R/B
OBJECT_ID      = 2007-010B
CENTER_NAME    = EARTH
REF_FRAME      = TEME
TIME_SYSTEM    = UTC
MEAN_ELEMENT_THEORY = SGP/SGP4

EPOCH          = 2026-02-09T06:20:08.354112
MEAN_MOTION    = 14.20236226
ECCENTRICITY   = .00592672
INCLINATION    = 98.3970
RA_OF_ASC_NODE = 154.9702
ARG_OF_PERICENTER = 17.9663
MEAN_ANOMALY   = 342.3592

EPHEMERIS_TYPE = 0
CLASSIFICATION_TYPE = U
NORAD_CAT_ID   = 31114
ELEMENT_SET_NO = 999
REV_AT_EPOCH   = 97568
BSTAR          = .83072622E-4
MEAN_MOTION_DOT = .14E-5
MEAN_MOTION_DDOT = 0

CCSDS_OMM_VERS = 2.0
CREATION_DATE  = 
ORIGINATOR     = 

OBJECT_NAME    = COSMO-SKYMED 1
OBJECT_ID      = 2007-023A
CENTER_NAME    = EARTH
REF_FRAME      = TEME
TIME_SYSTEM    = UTC
MEAN_ELEMENT_THEORY = SGP/SGP4

EPOCH          = 2026-02-09T05:53:50.524224
MEAN_MOTION    = 14.96305708
ECCENTRICITY   = .0000859
INCLINATION    = 97.8857
RA_OF_ASC_NODE = 231.0552
ARG_OF_PERICENTER = 79.5255
MEAN_ANOMALY   = 280.6063

EPHEMERIS_TYPE = 0
CLASSIFICATION_TYPE = U
NORAD_CAT_ID   = 31598
ELEMENT_SET_NO = 999
REV_AT_EPOCH   = 1065
BSTAR          = .30895661E-3
MEAN_MOTION_DOT = .3433E-4
MEAN_MOTION_DDOT = 0

CCSDS_OMM_VERS = 2.0
CREATION_DATE  = 
ORIGINATOR     = 

OBJECT_NAME    = COSMOS 2428
OBJECT_ID      = 2007-029A
CENTER_NAME    = EARTH
REF_FRAME      = TEME
TIME_SYSTEM    = UTC
MEAN_ELEMENT_THEORY = SGP/SGP4

EPOCH          = 2026-02-09T01:48:01.336608
MEAN_MOTION    = 14.12933085
ECCENTRICITY   = .00073392
INCLINATION    = 70.9396
RA_OF_ASC_NODE = 263.4100
ARG_OF_PERICENTER = 308.5248
MEAN_ANOMALY   = 51.5214

EPHEMERIS_TYPE = 0
CLASSIFICATION_TYPE = U
NORAD_CAT_ID   = 31792
ELEMENT_SET_NO = 999
REV_AT_EPOCH   = 96005
BSTAR          = .19476296E-3
MEAN_MOTION_DOT = .315E-5
MEAN_MOTION_DDOT = 0

CCSDS_OMM_VERS = 2.0
CREATION_DATE  = 
ORIGINATOR     = 

OBJECT_NAME    = SL-16 R/B
OBJECT_ID      = 2007-029B
CENTER_NAME    = EARTH
REF_FRAME      = TEME
TIME_SYSTEM    = UTC
MEAN_ELEMENT_THEORY = SGP/SGP4

EPOCH          = 2026-02-09T00:15:49.883328
MEAN_MOTION    = 14.14832119
ECCENTRICITY   = .00019583
INCLINATION    = 70.9734
RA_OF_ASC_NODE = 232.6676
ARG_OF_PERICENTER = 277.7628
MEAN_ANOMALY   = 196.1853

EPHEMERIS_TYPE = 0
CLASSIFICATION_TYPE = U
NORAD_CAT_ID   = 31793
ELEMENT_SET_NO = 999
REV_AT_EPOCH   = 96131
BSTAR          = .2290782E-3
MEAN_MOTION_DOT = .394E-5
MEAN_MOTION_DDOT = 0

CCSDS_OMM_VERS = 2.0
CREATION_DATE  = 
ORIGINATOR     = 

OBJECT_NAME    = KORONAS-FOTON
OBJECT_ID      = 2009-003A
CENTER_NAME    = EARTH
REF_FRAME      = TEME
TIME_SYSTEM    = UTC
MEAN_ELEMENT_THEORY = SGP/SGP4

EPOCH          = 2026-02-09T05:29:23.191296
MEAN_MOTION    = 15.42567366
ECCENTRICITY   = .00089376
INCLINATION    = 82.4317
RA_OF_ASC_NODE = 305.4475
ARG_OF_PERICENTER = 259.3060
MEAN_ANOMALY   = 100.7181

EPHEMERIS_TYPE = 0
CLASSIFICATION_TYPE = U
NORAD_CAT_ID   = 33504
ELEMENT_SET_NO = 999
REV_AT_EPOCH   = 94135
BSTAR          = .25878375E-3
MEAN_MOTION_DOT = .11292E-3
MEAN_MOTION_DDOT = 0

CCSDS_OMM_VERS = 2.0
CREATION_DATE  = 
ORIGINATOR     = 

OBJECT_NAME    = CZ-2C R/B
OBJECT_ID      = 2011-030B
CENTER_NAME    = EARTH
REF_FRAME      = TEME
TIME_SYSTEM    = UTC
MEAN_ELEMENT_THEORY = SGP/SGP4

EPOCH          = 2026-02-08T21:38:01.760064
MEAN_MOTION    = 14.81109339
ECCENTRICITY   = .00542347
INCLINATION    = 97.8494
RA_OF_ASC_NODE = 357.7543
ARG_OF_PERICENTER = 84.1655
MEAN_ANOMALY   = 340.7566

EPHEMERIS_TYPE = 0
CLASSIFICATION_TYPE = U
NORAD_CAT_ID   = 37731
ELEMENT_SET_NO = 999
REV_AT_EPOCH   = 78583
BSTAR          = .22090165E-3
MEAN_MOTION_DOT = .1705E-4
MEAN_MOTION_DDOT = 0

CCSDS_OMM_VERS = 2.0
CREATION_DATE  = 
ORIGINATOR     = 

OBJECT_NAME    = H-2A R/B
OBJECT_ID      = 2012-025E
CENTER_NAME    = EARTH
REF_FRAME      = TEME
TIME_SYSTEM    = UTC
MEAN_ELEMENT_THEORY = SGP/SGP4

EPOCH          = 2026-02-08T21:10:39.131904
MEAN_MOTION    = 14.94910380
ECCENTRICITY   = .00457741
INCLINATION    = 98.4679
RA_OF_ASC_NODE = 4.6412
ARG_OF_PERICENTER = 48.0300
MEAN_ANOMALY   = 312.4804

EPHEMERIS_TYPE = 0
CLASSIFICATION_TYPE = U
NORAD_CAT_ID   = 38341
ELEMENT_SET_NO = 999
REV_AT_EPOCH   = 74391
BSTAR          = .33385276E-3
MEAN_MOTION_DOT = .3649E-4
MEAN_MOTION_DDOT = 0

CCSDS_OMM_VERS = 2.0
CREATION_DATE  = 
ORIGINATOR     = 

OBJECT_NAME    = SHIJIAN-16 (SJ-16)
OBJECT_ID      = 2013-057A
CENTER_NAME    = EARTH
REF_FRAME      = TEME
TIME_SYSTEM    = UTC
MEAN_ELEMENT_THEORY = SGP/SGP4

EPOCH          = 2026-02-09T06:29:18.099168
MEAN_MOTION    = 14.92240454
ECCENTRICITY   = .00167965
INCLINATION    = 74.9707
RA_OF_ASC_NODE = 238.8850
ARG_OF_PERICENTER = 183.5765
MEAN_ANOMALY   = 176.5306

EPHEMERIS_TYPE = 0
CLASSIFICATION_TYPE = U
NORAD_CAT_ID   = 39358
ELEMENT_SET_NO = 999
REV_AT_EPOCH   = 66726
BSTAR          = .10386246E-3
MEAN_MOTION_DOT = .1033E-4
MEAN_MOTION_DDOT = 0

