ALOS (DAICHI)           
1 28931U 06002A   26040.11392002  .00001681  00000+0  29037-3 0  9990
2 28931  98.1170 356.2243 0001976  64.9072 295.2339 14.69713598 69288
H-2A R/B                
1 28932U 06002B   26040.29538466  .00009223  00000+0  46947-3 0  9995
2 28932  98.2359 184.9013 0052746 338.9903  20.9160 15.15845903 90139
RESURS-DK 1             
1 29228U 06021A   26040.16658403  .00003259  00000+0  19244-3 0  9998
2 29228  69.9346 310.7957 0004573 204.7790 155.3157 15.12577967 83213
CZ-4B R/B               
1 29507U 06046C   26040.10910776  .00004742  00000+0  24291-3 0  9999
2 29507  97.5654  85.0925 0033628   9.5359 350.6505 15.16593541 55715
CZ-2C R/B               
1 31114U 07010B   26040.26398558  .00000140  00000+0  83073-4 0  9995
2 31114  98.3970 154.9702 0059267  17.9663 342.3592 14.20236226975688
COSMO-SKYMED 1          
1 31598U 07023A   26040.24572366  .00003433  00000+0  30896-3 0  9996
2 31598  97.8857 231.0552 0000859  79.5255 280.6063 14.96305708 10655
COSMOS 2428             
1 31792U 07029A   26040.07501547  .00000315  00000+0  19476-3 0  9999
2 31792  70.9396 263.4100 0007339 308.5248  51.5214 14.12933085960050
SL-16 R/B               
1 31793U 07029B   26040.01099402  .00000394  00000+0  22908-3 0  9997
2 31793  70.9734 232.6676 0001958 277.7628 196.1853 14.14832119961316
KORONAS-FOTON           
1 33504U 09003A   26040.22874064  .00011292  00000+0  25878-3 0  9999
2 33504  82.4317 305.4475 0008937 259.3060 100.7181 15.42567366941357
CZ-2C R/B               
1 37731U 11030B   26039.90140926  .00001705  00000+0  22090-3 0  9995
2 37731  97.8494 357.7543 0054234  84.1655 340.7566 14.81109339785836
H-2A R/B                
1 38341U 12025E   26039.88239736  .00003649  00000+0  33385-3 0  9991
2 38341  98.4679   4.6412 0045774  48.0300 312.4804 14.94910380743918
SHIJIAN-16 (SJ-16)      
1 39358U 13057A   26040.27034837  .00001033  00000+0  10386-3 0  9997
2 39358  74.9707 238.8850 0016796 183.5765 176.5306 14.92240454667262
